STARLINK-2532_new
1 18308C 21036AJ  21326.16807891  .00005433  00000-0  36408-3 0  3262
2 18308  53.0557 292.9858 0001956  59.1115 162.7561 15.06388107    14
STARLINK-2532_old
1 28308C 21036AJ  21325.15262880  .00003283  00000-0  21989-3 0  3251
2 28308  53.0552 297.5443 0001975  59.9408  52.0103 15.06404238    11
